[{"OBJECT_NAME":"STARLINK-32425","OBJECT_ID":"2024-171S","EPOCH":"2026-03-09T22:17:06.652608","MEAN_MOTION":15.30157583,"ECCENTRICITY":8.762e-5,"INCLINATION":53.1597,"RA_OF_ASC_NODE":321.4355,"ARG_OF_PERICENTER":100.0428,"MEAN_ANOMALY":260.0672,"EPHEMERIS_TYPE":0,"CLASSIFICATION_TYPE":"U","NORAD_CAT_ID":61216,"ELEMENT_SET_NO":999,"REV_AT_EPOCH":8240,"BSTAR":0.00021850476,"MEAN_MOTION_DOT":6.11e-5,"MEAN_MOTION_DDOT":0},{"OBJECT_NAME":"JINJUSAT-1B","OBJECT_ID":"2025-052A","EPOCH":"2026-03-09T15:55:38.242848","MEAN_MOTION":15.30194857,"ECCENTRICITY":0.00055504,"INCLINATION":97.4113,"RA_OF_ASC_NODE":325.4613,"ARG_OF_PERICENTER":82.193,"MEAN_ANOMALY":277.9941,"EPHEMERIS_TYPE":0,"CLASSIFICATION_TYPE":"U","NORAD_CAT_ID":63210,"ELEMENT_SET_NO":999,"REV_AT_EPOCH":5486,"BSTAR":0.00068430401,"MEAN_MOTION_DOT":0.00019955,"MEAN_MOTION_DDOT":0}]
